[{"OBJECT_NAME":"IRIDIUM 154","OBJECT_ID":"2018-061F","EPOCH":"2026-03-09T19:28:30.566496","MEAN_MOTION":14.34219109,"ECCENTRICITY":0.00022519,"INCLINATION":86.3916,"RA_OF_ASC_NODE":98.3738,"ARG_OF_PERICENTER":97.8524,"MEAN_ANOMALY":262.2928,"EPHEMERIS_TYPE":0,"CLASSIFICATION_TYPE":"U","NORAD_CAT_ID":43574,"ELEMENT_SET_NO":999,"REV_AT_EPOCH":39916,"BSTAR":1.1681552e-5,"MEAN_MOTION_DOT":5.3e-7,"MEAN_MOTION_DDOT":0},{"OBJECT_NAME":"HAIYANG-1A","OBJECT_ID":"2002-024A","EPOCH":"2026-03-09T21:05:00.021408","MEAN_MOTION":14.3308458,"ECCENTRICITY":0.00091147,"INCLINATION":98.7175,"RA_OF_ASC_NODE":30.1946,"ARG_OF_PERICENTER":17.0301,"MEAN_ANOMALY":343.1187,"EPHEMERIS_TYPE":0,"CLASSIFICATION_TYPE":"U","NORAD_CAT_ID":27430,"ELEMENT_SET_NO":999,"REV_AT_EPOCH":24360,"BSTAR":0.00018938608,"MEAN_MOTION_DOT":4.74e-6,"MEAN_MOTION_DDOT":0}]
